start=new Date('2023-03-14T00:00:00.000Z').valueOf();
sats=[{"GP_ID":"228008792","BSTAR":"0.00151320000000","NORAD_CAT_ID":"44713","PERIAPSIS":"545.985","MEAN_MOTION":"15.06457511","TLE_LINE1":"1 44713U 19074A   23072.45697274  .00022365  00000-0  15132-2 0  9990","TLE_LINE2":"2 44713  53.0524  49.8384 0001519 101.7458 258.3702 15.06457511184294","MEAN_MOTION_DDOT":"0.0000000000000","EPOCH":"2023-03-13T10:58:02.444736","CLASSIFICATION_TYPE":"U","ELEMENT_SET_NO":"999","MEAN_MOTION_DOT":"0.00022365","EPHEMERIS_TYPE":"0","REF_FRAME":"TEME","SEMIMAJOR_AXIS":"6925.172","MEAN_ANOMALY":"258.3702","SITE":"AFETR","RA_OF_ASC_NODE":"49.8384","ARG_OF_PERICENTER":"101.7458","MEAN_ELEMENT_THEORY":"SGP4","CENTER_NAME":"EARTH","INCLINATION":"53.0524","FILE":"3859497","DECAY_DATE":null,"OBJECT_ID":"2019-074A","TIME_SYSTEM":"UTC","ECCENTRICITY":"0.00015190","REV_AT_EPOCH":"18429","APOAPSIS":"548.089","OBJECT_NAME":"STARLINK-1007","RCS_SIZE":"LARGE","COUNTRY_CODE":"US","PERIOD":"95.588","OBJECT_TYPE":"PAYLOAD","LAUNCH_DATE":"2019-11-11"},{"NORAD_CAT_ID":"44714","BSTAR":"0.00037310000000","GP_ID":"227998298","PERIAPSIS":"545.853","TLE_LINE1":"1 44714U 19074B   23072.36947764  .00005281  00000-0  37310-3 0  9994","MEAN_MOTION":"15.06406366","TLE_LINE2":"2 44714  53.0572  50.2340 0001936  78.0428 282.0778 15.06406366184112","CLASSIFICATION_TYPE":"U","EPOCH":"2023-03-13T08:52:02.868096","MEAN_MOTION_DDOT":"0.0000000000000","MEAN_MOTION_DOT":"0.00005281","ELEMENT_SET_NO":"999","EPHEMERIS_TYPE":"0","CENTER_NAME":"EARTH","ARG_OF_PERICENTER":"78.0428","RA_OF_ASC_NODE":"50.2340","MEAN_ELEMENT_THEORY":"SGP4","SITE":"AFETR","SEMIMAJOR_AXIS":"6925.329","MEAN_ANOMALY":"282.0778","REF_FRAME":"TEME","INCLINATION":"53.0572","FILE":"3859425","TIME_SYSTEM":"UTC","DECAY_DATE":null,"OBJECT_ID":"2019-074B","APOAPSIS":"548.535","REV_AT_EPOCH":"18411","ECCENTRICITY":"0.00019360","PERIOD":"95.592","RCS_SIZE":"LARGE","COUNTRY_CODE":"US","OBJECT_NAME":"STARLINK-1008","OBJECT_TYPE":"PAYLOAD","LAUNCH_DATE":"2019-11-11"},{"PERIOD":"95.592","OBJECT_NAME":"STARLINK-1009","COUNTRY_CODE":"US","RCS_SIZE":"LARGE","OBJECT_TYPE":"PAYLOAD","LAUNCH_DATE":"2019-11-11","RA_OF_ASC_NODE":"47.6010","ARG_OF_PERICENTER":"108.3304","MEAN_ELEMENT_THEORY":"SGP4","CENTER_NAME":"EARTH","REF_FRAME":"TEME","SEMIMAJOR_AXIS":"6925.351","MEAN_ANOMALY":"251.7895","SITE":"AFETR","FILE":"3859631","INCLINATION":"53.0549","TIME_SYSTEM":"UTC","DECAY_DATE":null,"OBJECT_ID":"2019-074C","APOAPSIS":"548.552","ECCENTRICITY":"0.00019290","REV_AT_EPOCH":"18419","TLE_LINE2":"2 44715  53.0549  47.6010 0001929 108.3304 251.7895 15.06399327184192","CLASSIFICATION_TYPE":"U","EPOCH":"2023-03-13T22:56:00.321792","MEAN_MOTION_DDOT":"0.0000000000000","ELEMENT_SET_NO":"999","MEAN_MOTION_DOT":"0.00011274","EPHEMERIS_TYPE":"0","NORAD_CAT_ID":"44715","BSTAR":"0.00077455000000","GP_ID":"228030686","PERIAPSIS":"545.880","MEAN_MOTION":"15.06399327","TLE_LINE1":"1 44715U 19074C   23072.95555928  .00011274  00000-0  77455-3 0  9990"},{"CLASSIFICATION_TYPE":"U","EPOCH":"2023-03-13T21:46:57.715680","MEAN_MOTION_DDOT":"0.0000000000000","TLE_LINE2":"2 44716  53.0553  47.8169 0001782 104.3698 255.7488 15.06361827184178","EPHEMERIS_TYPE":"0","MEAN_MOTION_DOT":"-0.00026859","ELEMENT_SET_NO":"999","NORAD_CAT_ID":"44716","BSTAR":"-0.00179290000000","GP_ID":"228030437","TLE_LINE1":"1 44716U 19074D   23072.90761245 -.00026859  00000-0 -17929-2 0  9993","MEAN_MOTION":"15.06361827","PERIAPSIS":"546.096","OBJECT_TYPE":"PAYLOAD","PERIOD":"95.595","RCS_SIZE":"LARGE","COUNTRY_CODE":"US","OBJECT_NAME":"STARLINK-1010","LAUNCH_DATE":"2019-11-11","INCLINATION":"53.0553","FILE":"3859631","CENTER_NAME":"EARTH","ARG_OF_PERICENTER":"104.3698","RA_OF_ASC_NODE":"47.8169","MEAN_ELEMENT_THEORY":"SGP4","SITE":"AFETR","MEAN_ANOMALY":"255.7488","SEMIMAJOR_AXIS":"6925.466","REF_FRAME":"TEME","APOAPSIS":"548.565","REV_AT_EPOCH":"18417","ECCENTRICITY":"0.00017820","TIME_SYSTEM":"UTC","OBJECT_ID":"2019-074D","DECAY_DATE":null},{"TLE_LINE1":"1 44717U 19074E   23072.50770200  .00021502  00000-0  14573-2 0  9991","MEAN_MOTION":"15.06418378","PERIAPSIS":"546.403","NORAD_CAT_ID":"44717","GP_ID":"227999309","BSTAR":"0.00145730000000","EPHEMERIS_TYPE":"0","MEAN_MOTION_DOT":"0.00021502","ELEMENT_SET_NO":"999","CLASSIFICATION_TYPE":"U","EPOCH":"2023-03-13T12:11:05.452800","MEAN_MOTION_DDOT":"0.0000000000000","TLE_LINE2":"2 44717  53.0530  69.6105 0001089 129.5118 230.5967 15.06418378183853","APOAPSIS":"547.911","REV_AT_EPOCH":"18385","ECCENTRICITY":"0.00010890","TIME_SYSTEM":"UTC","OBJECT_ID":"2019-074E","DECAY_DATE":null,"INCLINATION":"53.0530","FILE":"3859425","CENTER_NAME":"EARTH","MEAN_ELEMENT_THEORY":"SGP4","ARG_OF_PERICENTER":"129.5118","RA_OF_ASC_NODE":"69.6105","SITE":"AFETR","SEMIMAJOR_AXIS":"6925.292","REF_FRAME":"TEME","MEAN_ANOMALY":"230.5967","LAUNCH_DATE":"2019-11-11","OBJECT_TYPE":"PAYLOAD","PERIOD":"95.591","COUNTRY_CODE":"US","RCS_SIZE":"LARGE","OBJECT_NAME":"STARLINK-1011"},{"PERIOD":"95.592","OBJECT_NAME":"STARLINK-1012","RCS_SIZE":"LARGE","COUNTRY_CODE":"US","OBJECT_TYPE":"PAYLOAD","LAUNCH_DATE":"2019-11-11","ARG_OF_PERICENTER":"100.0006","RA_OF_ASC_NODE":"47.6450","MEAN_ELEMENT_THEORY":"SGP4","CENTER_NAME":"EARTH","REF_FRAME":"TEME","SEMIMAJOR_AXIS":"6925.333","MEAN_ANOMALY":"260.1350","SITE":"AFETR","FILE":"3859631","INCLINATION":"53.0535","TIME_SYSTEM":"UTC","DECAY_DATE":null,"OBJECT_ID":"2019-074F","APOAPSIS":"549.454","ECCENTRICITY":"0.00032570","REV_AT_EPOCH":"18419","TLE_LINE2":"2 44718  53.0535  47.6450 0003257 100.0006 260.1350 15.06405015184194","CLASSIFICATION_TYPE":"U","EPOCH":"2023-03-13T22:40:04.648800","MEAN_MOTION_DDOT":"0.0000000000000","ELEMENT_SET_NO":"999","MEAN_MOTION_DOT":"0.00019998","EPHEMERIS_TYPE":"0","NORAD_CAT_ID":"44718","BSTAR":"0.00135740000000","GP_ID":"228029436","PERIAPSIS":"544.943","MEAN_MOTION":"15.06405015","TLE_LINE1":"1 44718U 19074F   23072.94449825  .00019998  00000-0  13574-2 0  9992"},{"INCLINATION":"53.0527","FILE":"3859631","CENTER_NAME":"EARTH","RA_OF_ASC_NODE":"47.6158","ARG_OF_PERICENTER":"123.5731","MEAN_ELEMENT_THEORY":"SGP4","SITE":"AFETR","SEMIMAJOR_AXIS":"6925.396","REF_FRAME":"TEME","MEAN_ANOMALY":"236.5401","APOAPSIS":"548.298","REV_AT_EPOCH":"18532","ECCENTRICITY":"0.00014980","TIME_SYSTEM":"UTC","DECAY_DATE":null,"OBJECT_ID":"2019-074G","OBJECT_TYPE":"PAYLOAD","PERIOD":"95.593","COUNTRY_CODE":"US","RCS_SIZE":"LARGE","OBJECT_NAME":"STARLINK-1013","LAUNCH_DATE":"2019-11-11","NORAD_CAT_ID":"44719","GP_ID":"228030187","BSTAR":"-0.00091688000000","TLE_LINE1":"1 44719U 19074G   23072.95183391 -.00013906  00000-0 -91688-3 0  9995","MEAN_MOTION":"15.06384660","PERIAPSIS":"546.223","CLASSIFICATION_TYPE":"U","EPOCH":"2023-03-13T22:50:38.449824","MEAN_MOTION_DDOT":"0.0000000000000","TLE_LINE2":"2 44719  53.0527  47.6158 0001498 123.5731 236.5401 15.06384660185323","EPHEMERIS_TYPE":"0","MEAN_MOTION_DOT":"-0.00013906","ELEMENT_SET_NO":"999"},{"TLE_LINE1":"1 44720U 19074H   23072.37220997  .00023870  00000-0  16149-2 0  9994","MEAN_MOTION":"15.06424755","PERIAPSIS":"546.359","GP_ID":"228008653","BSTAR":"0.00161490000000","NORAD_CAT_ID":"44720","EPHEMERIS_TYPE":"0","MEAN_MOTION_DOT":"0.00023870","ELEMENT_SET_NO":"999","MEAN_MOTION_DDOT":"0.0000000000000","CLASSIFICATION_TYPE":"U","EPOCH":"2023-03-13T08:55:58.941408","TLE_LINE2":"2 44720  53.0548  50.2110 0001125  99.0253 261.0863 15.06424755184288","REV_AT_EPOCH":"18428","ECCENTRICITY":"0.00011250","APOAPSIS":"547.917","DECAY_DATE":null,"OBJECT_ID":"2019-074H","TIME_SYSTEM":"UTC","FILE":"3859481","INCLINATION":"53.0548","SITE":"AFETR","MEAN_ANOMALY":"261.0863","SEMIMAJOR_AXIS":"6925.273","REF_FRAME":"TEME","CENTER_NAME":"EARTH","RA_OF_ASC_NODE":"50.2110","ARG_OF_PERICENTER":"99.0253","MEAN_ELEMENT_THEORY":"SGP4","LAUNCH_DATE":"2019-11-11","OBJECT_TYPE":"PAYLOAD","RCS_SIZE":"LARGE","COUNTRY_CODE":"US","OBJECT_NAME":"STARLINK-1014","PERIOD":"95.591"},{"BSTAR":"0.00133020000000","GP_ID":"228029685","NORAD_CAT_ID":"44721","MEAN_MOTION":"15.06393263","TLE_LINE1":"1 44721U 19074J   23072.89289705  .00019584  00000-0  13302-2 0  9999","PERIAPSIS":"545.596","MEAN_MOTION_DDOT":"0.0000000000000","CLASSIFICATION_TYPE":"U","EPOCH":"2023-03-13T21:25:46.305120","TLE_LINE2":"2 44721  53.0555  47.8822 0002365  97.1082 263.0176 15.06393263184182","EPHEMERIS_TYPE":"0","ELEMENT_SET_NO":"999","MEAN_MOTION_DOT":"0.00019584","INCLINATION":"53.0555","FILE":"3859631","REF_FRAME":"TEME","SEMIMAJOR_AXIS":"6925.369","MEAN_ANOMALY":"263.0176","SITE":"AFETR","ARG_OF_PERICENTER":"97.1082","RA_OF_ASC_NODE":"47.8822","MEAN_ELEMENT_THEORY":"SGP4","CENTER_NAME":"EARTH","ECCENTRICITY":"0.00023650","REV_AT_EPOCH":"18418","APOAPSIS":"548.872","DECAY_DATE":null,"OBJECT_ID":"2019-074J","TIME_SYSTEM":"UTC","OBJECT_TYPE":"PAYLOAD","OBJECT_NAME":"STARLINK-1015","COUNTRY_CODE":"US","RCS_SIZE":"LARGE","PERIOD":"95.593","LAUNCH_DATE":"2019-11-11"},{"EPHEMERIS_TYPE":"0","ELEMENT_SET_NO":"999","MEAN_MOTION_DOT":"0.00000252","MEAN_MOTION_DDOT":"0.0000000000000","EPOCH":"2023-03-13T21:52:17.427648","CLASSIFICATION_TYPE":"U","TLE_LINE2":"2 44723  53.0564  47.7991 0001580  84.9288 275.1881 15.06395830184190","MEAN_MOTION":"15.06395830","TLE_LINE1":"1 44723U 19074L   23072.91131282  .00000252  00000-0  35821-4 0  9994","PERIAPSIS":"546.132","BSTAR":"0.00003582100000","GP_ID":"228029935","NORAD_CAT_ID":"44723","LAUNCH_DATE":"2019-11-11","OBJECT_TYPE":"PAYLOAD","OBJECT_NAME":"STARLINK-1017","COUNTRY_CODE":"US","RCS_SIZE":"LARGE","PERIOD":"95.592","ECCENTRICITY":"0.00015800","REV_AT_EPOCH":"18419","APOAPSIS":"548.321","DECAY_DATE":null,"OBJECT_ID":"2019-074L","TIME_SYSTEM":"UTC","INCLINATION":"53.0564","FILE":"3859631","SEMIMAJOR_AXIS":"6925.361","MEAN_ANOMALY":"275.1881","REF_FRAME":"TEME","SITE":"AFETR","ARG_OF_PERICENTER":"84.9288","MEAN_ELEMENT_THEORY":"SGP4","RA_OF_ASC_NODE":"47.7991","CENTER_NAME":"EARTH"}];
